<?xml version="1.0" encoding="UTF-8"?>
<ndm xmlns:xsi="http://www.w3.org/2001/XMLSchema-instance" xsi:noNamespaceSchemaLocation="https://sanaregistry.org/r/ndmxml_unqualified/ndmxml-2.0.0-master-2.0.xsd">
<omm id="CCSDS_OMM_VERS" version="2.0">
<header><CREATION_DATE/><ORIGINATOR/></header><body><segment><metadata><OBJECT_NAME>IRIDIUM 106</OBJECT_NAME><OBJECT_ID>2017-003A</OBJECT_ID><CENTER_NAME>EARTH</CENTER_NAME><REF_FRAME>TEME</REF_FRAME><TIME_SYSTEM>UTC</TIME_SYSTEM><MEAN_ELEMENT_THEORY>SGP4</MEAN_ELEMENT_THEORY></metadata><data><meanElements><EPOCH>2025-10-26T05:33:14.167872</EPOCH><MEAN_MOTION>14.34218692</MEAN_MOTION><ECCENTRICITY>.00017483</ECCENTRICITY><INCLINATION>86.4033</INCLINATION><RA_OF_ASC_NODE>186.2816</RA_OF_ASC_NODE><ARG_OF_PERICENTER>72.8928</ARG_OF_PERICENTER><MEAN_ANOMALY>287.2460</MEAN_ANOMALY></meanElements><tleParameters><EPHEMERIS_TYPE>0</EPHEMERIS_TYPE><CLASSIFICATION_TYPE>U</CLASSIFICATION_TYPE><NORAD_CAT_ID>41917</NORAD_CAT_ID><ELEMENT_SET_NO>999</ELEMENT_SET_NO><REV_AT_EPOCH>45967</REV_AT_EPOCH><BSTAR>.89563699E-4</BSTAR><MEAN_MOTION_DOT>.271E-5</MEAN_MOTION_DOT><MEAN_MOTION_DDOT>0</MEAN_MOTION_DDOT></tleParameters></data></segment></body></omm>
<omm id="CCSDS_OMM_VERS" version="2.0">
<header><CREATION_DATE/><ORIGINATOR/></header><body><segment><metadata><OBJECT_NAME>IRIDIUM 103</OBJECT_NAME><OBJECT_ID>2017-003B</OBJECT_ID><CENTER_NAME>EARTH</CENTER_NAME><REF_FRAME>TEME</REF_FRAME><TIME_SYSTEM>UTC</TIME_SYSTEM><MEAN_ELEMENT_THEORY>SGP4</MEAN_ELEMENT_THEORY></metadata><data><meanElements><EPOCH>2025-10-26T05:14:57.501312</EPOCH><MEAN_MOTION>14.34221765</MEAN_MOTION><ECCENTRICITY>.00024349</ECCENTRICITY><INCLINATION>86.4032</INCLINATION><RA_OF_ASC_NODE>186.1873</RA_OF_ASC_NODE><ARG_OF_PERICENTER>75.5150</ARG_OF_PERICENTER><MEAN_ANOMALY>284.6316</MEAN_ANOMALY></meanElements><tleParameters><EPHEMERIS_TYPE>0</EPHEMERIS_TYPE><CLASSIFICATION_TYPE>U</CLASSIFICATION_TYPE><NORAD_CAT_ID>41918</NORAD_CAT_ID><ELEMENT_SET_NO>999</ELEMENT_SET_NO><REV_AT_EPOCH>45969</REV_AT_EPOCH><BSTAR>.12217429E-3</BSTAR><MEAN_MOTION_DOT>.362E-5</MEAN_MOTION_DOT><MEAN_MOTION_DDOT>0</MEAN_MOTION_DDOT></tleParameters></data></segment></body></omm>
<omm id="CCSDS_OMM_VERS" version="2.0">
<header><CREATION_DATE/><ORIGINATOR/></header><body><segment><metadata><OBJECT_NAME>IRIDIUM 109</OBJECT_NAME><OBJECT_ID>2017-003C</OBJECT_ID><CENTER_NAME>EARTH</CENTER_NAME><REF_FRAME>TEME</REF_FRAME><TIME_SYSTEM>UTC</TIME_SYSTEM><MEAN_ELEMENT_THEORY>SGP4</MEAN_ELEMENT_THEORY></metadata><data><meanElements><EPOCH>2025-10-26T05:24:05.663520</EPOCH><MEAN_MOTION>14.34215280</MEAN_MOTION><ECCENTRICITY>.00022263</ECCENTRICITY><INCLINATION>86.4035</INCLINATION><RA_OF_ASC_NODE>186.2403</RA_OF_ASC_NODE><ARG_OF_PERICENTER>80.3928</ARG_OF_PERICENTER><MEAN_ANOMALY>279.7519</MEAN_ANOMALY></meanElements><tleParameters><EPHEMERIS_TYPE>0</EPHEMERIS_TYPE><CLASSIFICATION_TYPE>U</CLASSIFICATION_TYPE><NORAD_CAT_ID>41919</NORAD_CAT_ID><ELEMENT_SET_NO>999</ELEMENT_SET_NO><REV_AT_EPOCH>45966</REV_AT_EPOCH><BSTAR>.72788644E-4</BSTAR><MEAN_MOTION_DOT>.224E-5</MEAN_MOTION_DOT><MEAN_MOTION_DDOT>0</MEAN_MOTION_DDOT></tleParameters></data></segment></body></omm>
<omm id="CCSDS_OMM_VERS" version="2.0">
<header><CREATION_DATE/><ORIGINATOR/></header><body><segment><metadata><OBJECT_NAME>IRIDIUM 102</OBJECT_NAME><OBJECT_ID>2017-003D</OBJECT_ID><CENTER_NAME>EARTH</CENTER_NAME><REF_FRAME>TEME</REF_FRAME><TIME_SYSTEM>UTC</TIME_SYSTEM><MEAN_ELEMENT_THEORY>SGP4</MEAN_ELEMENT_THEORY></metadata><data><meanElements><EPOCH>2025-10-26T04:38:26.297952</EPOCH><MEAN_MOTION>14.34218205</MEAN_MOTION><ECCENTRICITY>.00021179</ECCENTRICITY><INCLINATION>86.4032</INCLINATION><RA_OF_ASC_NODE>186.1822</RA_OF_ASC_NODE><ARG_OF_PERICENTER>86.9031</ARG_OF_PERICENTER><MEAN_ANOMALY>273.2407</MEAN_ANOMALY></meanElements><tleParameters><EPHEMERIS_TYPE>0</EPHEMERIS_TYPE><CLASSIFICATION_TYPE>U</CLASSIFICATION_TYPE><NORAD_CAT_ID>41920</NORAD_CAT_ID><ELEMENT_SET_NO>999</ELEMENT_SET_NO><REV_AT_EPOCH>45974</REV_AT_EPOCH><BSTAR>.63464408E-4</BSTAR><MEAN_MOTION_DOT>.198E-5</MEAN_MOTION_DOT><MEAN_MOTION_DDOT>0</MEAN_MOTION_DDOT></tleParameters></data></segment></body></omm>
<omm id="CCSDS_OMM_VERS" version="2.0">
<header><CREATION_DATE/><ORIGINATOR/></header><body><segment><metadata><OBJECT_NAME>IRIDIUM 105</OBJECT_NAME><OBJECT_ID>2017-003E</OBJECT_ID><CENTER_NAME>EARTH</CENTER_NAME><REF_FRAME>TEME</REF_FRAME><TIME_SYSTEM>UTC</TIME_SYSTEM><MEAN_ELEMENT_THEORY>SGP4</MEAN_ELEMENT_THEORY></metadata><data><meanElements><EPOCH>2025-10-26T02:15:50.469696</EPOCH><MEAN_MOTION>14.34218497</MEAN_MOTION><ECCENTRICITY>.0002202</ECCENTRICITY><INCLINATION>86.3997</INCLINATION><RA_OF_ASC_NODE>154.7331</RA_OF_ASC_NODE><ARG_OF_PERICENTER>81.9046</ARG_OF_PERICENTER><MEAN_ANOMALY>278.2400</MEAN_ANOMALY></meanElements><tleParameters><EPHEMERIS_TYPE>0</EPHEMERIS_TYPE><CLASSIFICATION_TYPE>U</CLASSIFICATION_TYPE><NORAD_CAT_ID>41921</NORAD_CAT_ID><ELEMENT_SET_NO>999</ELEMENT_SET_NO><REV_AT_EPOCH>46158</REV_AT_EPOCH><BSTAR>.11973807E-3</BSTAR><MEAN_MOTION_DOT>.355E-5</MEAN_MOTION_DOT><MEAN_MOTION_DDOT>0</MEAN_MOTION_DDOT></tleParameters></data></segment></body></omm>
<omm id="CCSDS_OMM_VERS" version="2.0">
<header><CREATION_DATE/><ORIGINATOR/></header><body><segment><metadata><OBJECT_NAME>IRIDIUM 104</OBJECT_NAME><OBJECT_ID>2017-003F</OBJECT_ID><CENTER_NAME>EARTH</CENTER_NAME><REF_FRAME>TEME</REF_FRAME><TIME_SYSTEM>UTC</TIME_SYSTEM><MEAN_ELEMENT_THEORY>SGP4</MEAN_ELEMENT_THEORY></metadata><data><meanElements><EPOCH>2025-10-26T01:35:46.310208</EPOCH><MEAN_MOTION>14.34218979</MEAN_MOTION><ECCENTRICITY>.00024805</ECCENTRICITY><INCLINATION>86.4036</INCLINATION><RA_OF_ASC_NODE>186.2741</RA_OF_ASC_NODE><ARG_OF_PERICENTER>83.6575</ARG_OF_PERICENTER><MEAN_ANOMALY>276.4904</MEAN_ANOMALY></meanElements><tleParameters><EPHEMERIS_TYPE>0</EPHEMERIS_TYPE><CLASSIFICATION_TYPE>U</CLASSIFICATION_TYPE><NORAD_CAT_ID>41922</NORAD_CAT_ID><ELEMENT_SET_NO>999</ELEMENT_SET_NO><REV_AT_EPOCH>45971</REV_AT_EPOCH><BSTAR>.11893602E-3</BSTAR><MEAN_MOTION_DOT>.353E-5</MEAN_MOTION_DOT><MEAN_MOTION_DDOT>0</MEAN_MOTION_DDOT></tleParameters></data></segment></body></omm>
<omm id="CCSDS_OMM_VERS" version="2.0">
<header><CREATION_DATE/><ORIGINATOR/></header><body><segment><metadata><OBJECT_NAME>IRIDIUM 114</OBJECT_NAME><OBJECT_ID>2017-003G</OBJECT_ID><CENTER_NAME>EARTH</CENTER_NAME><REF_FRAME>TEME</REF_FRAME><TIME_SYSTEM>UTC</TIME_SYSTEM><MEAN_ELEMENT_THEORY>SGP4</MEAN_ELEMENT_THEORY></metadata><data><meanElements><EPOCH>2025-10-26T05:05:50.426880</EPOCH><MEAN_MOTION>14.34217266</MEAN_MOTION><ECCENTRICITY>.00022483</ECCENTRICITY><INCLINATION>86.4031</INCLINATION><RA_OF_ASC_NODE>186.1972</RA_OF_ASC_NODE><ARG_OF_PERICENTER>80.6011</ARG_OF_PERICENTER><MEAN_ANOMALY>279.5439</MEAN_ANOMALY></meanElements><tleParameters><EPHEMERIS_TYPE>0</EPHEMERIS_TYPE><CLASSIFICATION_TYPE>U</CLASSIFICATION_TYPE><NORAD_CAT_ID>41923</NORAD_CAT_ID><ELEMENT_SET_NO>999</ELEMENT_SET_NO><REV_AT_EPOCH>45971</REV_AT_EPOCH><BSTAR>.13480835E-3</BSTAR><MEAN_MOTION_DOT>.397E-5</MEAN_MOTION_DOT><MEAN_MOTION_DDOT>0</MEAN_MOTION_DDOT></tleParameters></data></segment></body></omm>
<omm id="CCSDS_OMM_VERS" version="2.0">
<header><CREATION_DATE/><ORIGINATOR/></header><body><segment><metadata><OBJECT_NAME>IRIDIUM 108</OBJECT_NAME><OBJECT_ID>2017-003H</OBJECT_ID><CENTER_NAME>EARTH</CENTER_NAME><REF_FRAME>TEME</REF_FRAME><TIME_SYSTEM>UTC</TIME_SYSTEM><MEAN_ELEMENT_THEORY>SGP4</MEAN_ELEMENT_THEORY></metadata><data><meanElements><EPOCH>2025-10-26T02:25:38.450208</EPOCH><MEAN_MOTION>14.34218149</MEAN_MOTION><ECCENTRICITY>.00019136</ECCENTRICITY><INCLINATION>86.3989</INCLINATION><RA_OF_ASC_NODE>154.6232</RA_OF_ASC_NODE><ARG_OF_PERICENTER>89.8002</ARG_OF_PERICENTER><MEAN_ANOMALY>270.3413</MEAN_ANOMALY></meanElements><tleParameters><EPHEMERIS_TYPE>0</EPHEMERIS_TYPE><CLASSIFICATION_TYPE>U</CLASSIFICATION_TYPE><NORAD_CAT_ID>41924</NORAD_CAT_ID><ELEMENT_SET_NO>999</ELEMENT_SET_NO><REV_AT_EPOCH>46155</REV_AT_EPOCH><BSTAR>.529903E-4</BSTAR><MEAN_MOTION_DOT>.168E-5</MEAN_MOTION_DOT><MEAN_MOTION_DDOT>0</MEAN_MOTION_DDOT></tleParameters></data></segment></body></omm>

</ndm>
