IRIDIUM 106             
1 41917U 17003A   25299.23141398  .00000271  00000+0  89564-4 0  9996
2 41917  86.4033 186.2816 0001748  72.8928 287.2460 14.34218692459676
IRIDIUM 103             
1 41918U 17003B   25299.21872108  .00000362  00000+0  12217-3 0  9996
2 41918  86.4032 186.1873 0002434  75.5150 284.6316 14.34221765459696
IRIDIUM 109             
1 41919U 17003C   25299.22506555  .00000224  00000+0  72789-4 0  9996
2 41919  86.4035 186.2403 0002226  80.3928 279.7519 14.34215280459668
IRIDIUM 102             
1 41920U 17003D   25299.19335993  .00000198  00000+0  63464-4 0  9990
2 41920  86.4032 186.1822 0002117  86.9031 273.2407 14.34218205459741
IRIDIUM 105             
1 41921U 17003E   25299.09433414  .00000355  00000+0  11974-3 0  9990
2 41921  86.3997 154.7331 0002202  81.9046 278.2400 14.34218497461589
IRIDIUM 104             
1 41922U 17003F   25299.06650822  .00000353  00000+0  11894-3 0  9991
2 41922  86.4036 186.2741 0002480  83.6575 276.4904 14.34218979459710
IRIDIUM 114             
1 41923U 17003G   25299.21238920  .00000397  00000+0  13481-3 0  9992
2 41923  86.4031 186.1972 0002248  80.6011 279.5439 14.34217266459710
IRIDIUM 108             
1 41924U 17003H   25299.10113947  .00000168  00000+0  52990-4 0  9997
2 41924  86.3989 154.6232 0001913  89.8002 270.3413 14.34218149461557
